{
  "norad_id": 60923,
  "name": "STARLINK-32373",
  "history": [
    {
      "epoch": "2026-03-28T16:54:59.800320Z",
      "apogee_km": 476.02580639863663,
      "perigee_km": 474.4735143200651,
      "latitude_deg": 6.664335307356738e-05,
      "longitude_deg": 115.83230526521072,
      "height_km": 475.77234465826507,
      "semi_major_axis_km": 6853.386660359351,
      "eccentricity": 0.00011325,
      "inclination_deg": 53.1607,
      "raan_deg": 195.7029,
      "arg_perigee_deg": 61.0377,
      "mean_anomaly_deg": 299.0738,
      "mean_motion_rev_day": 15.30188415
    },
    {
      "epoch": "2026-03-29T07:01:29.830368Z",
      "apogee_km": 476.19485550005083,
      "perigee_km": 474.42132098011734,
      "latitude_deg": -1.0653668038677498e-05,
      "longitude_deg": -99.10348649362095,
      "height_km": 476.1127479697466,
      "semi_major_axis_km": 6853.445088240084,
      "eccentricity": 0.00012939,
      "inclination_deg": 53.1604,
      "raan_deg": 192.9717,
      "arg_perigee_deg": 83.9523,
      "mean_anomaly_deg": 276.1625,
      "mean_motion_rev_day": 15.30168847
    },
    {
      "epoch": "2026-03-30T12:48:30.771936Z",
      "apogee_km": 476.2096605743427,
      "perigee_km": 474.45955806418624,
      "latitude_deg": -6.163092233248734e-05,
      "longitude_deg": 167.1561845241093,
      "height_km": 476.1829703110989,
      "semi_major_axis_km": 6853.471609319264,
      "eccentricity": 0.00012768,
      "inclination_deg": 53.1601,
      "raan_deg": 187.2085,
      "arg_perigee_deg": 86.7432,
      "mean_anomaly_deg": 273.3714,
      "mean_motion_rev_day": 15.30159965
    },
    {
      "epoch": "2026-03-30T15:56:37.562496Z",
      "apogee_km": 476.18918949359795,
      "perigee_km": 474.4989839879854,
      "latitude_deg": 1.333385155914404e-05,
      "longitude_deg": 119.39248763309165,
      "height_km": 476.20206217623235,
      "semi_major_axis_km": 6853.481086740791,
      "eccentricity": 0.00012331,
      "inclination_deg": 53.16,
      "raan_deg": 186.6018,
      "arg_perigee_deg": 87.278,
      "mean_anomaly_deg": 272.8362,
      "mean_motion_rev_day": 15.30156791
    }
  ]
}